{
  "type": "FeatureCollection",
  "features": [
    {
      "type": "Feature",
      "properties": {
        "norad_id": 35459,
        "name": "COSMOS 2251 DEB",
        "group": "cosmos-2251-debris",
        "lat": 64.68528896357947,
        "lon": -144.29318485645348,
        "alt_km": 753.4032008871263,
        "timestamp": "2025-12-17T17:50:19.646797+00:00",
        "meta_object_name": "COSMOS 2251 DEB",
        "meta_object_id": "1993-036ALD",
        "meta_epoch": "2025-12-16T19:47:59.472960",
        "meta_mean_motion": 14.37467882,
        "meta_eccentricity": 0.00161668,
        "meta_inclination": 73.8692,
        "meta_ra_of_asc_node": 179.6909,
        "meta_arg_of_pericenter": 126.1972,
        "meta_mean_anomaly": 234.0679,
        "meta_ephemeris_type": 0,
        "meta_classification_type": "U",
        "meta_norad_cat_id": 35459,
        "meta_element_set_no": 999,
        "meta_rev_at_epoch": 58420,
        "meta_bstar": 0.0002276655,
        "meta_mean_motion_dot": 6.55e-06,
        "meta_mean_motion_ddot": 0,
        "tle_line1": "1 35459U 93036ALD 25350.82499390  .00000655  00000+0  22767-3 0  9998",
        "tle_line2": "2 35459  73.8692 179.6909 0016166 126.1972 234.0679 14.37467882584202"
      },
      "geometry": {
        "type": "Point",
        "coordinates": [
          -144.29318485645348,
          64.68528896357947
        ]
      }
    },
    {
      "type": "Feature",
      "properties": {
        "norad_id": 35462,
        "name": "COSMOS 2251 DEB",
        "group": "cosmos-2251-debris",
        "lat": -11.145386915488931,
        "lon": -103.63461418608841,
        "alt_km": 761.7460189308867,
        "timestamp": "2025-12-17T17:50:19.646807+00:00",
        "meta_object_name": "COSMOS 2251 DEB",
        "meta_object_id": "1993-036ALG",
        "meta_epoch": "2025-12-15T12:08:22.276032",
        "meta_mean_motion": 14.29319782,
        "meta_eccentricity": 0.00867718,
        "meta_inclination": 74.0367,
        "meta_ra_of_asc_node": 263.6601,
        "meta_arg_of_pericenter": 298.2214,
        "meta_mean_anomaly": 61.0193,
        "meta_ephemeris_type": 0,
        "meta_classification_type": "U",
        "meta_norad_cat_id": 35462,
        "meta_element_set_no": 999,
        "meta_rev_at_epoch": 66420,
        "meta_bstar": 0.0011070348,
        "meta_mean_motion_dot": 2.91e-05,
        "meta_mean_motion_ddot": 0,
        "tle_line1": "1 35462U 93036ALG 25349.50581338  .00002910  00000+0  11070-2 0  9999",
        "tle_line2": "2 35462  74.0367 263.6601 0086771 298.2214  61.0193 14.29319782664204"
      },
      "geometry": {
        "type": "Point",
        "coordinates": [
          -103.63461418608841,
          -11.145386915488931
        ]
      }
    },
    {
      "type": "Feature",
      "properties": {
        "norad_id": 35465,
        "name": "COSMOS 2251 DEB",
        "group": "cosmos-2251-debris",
        "lat": -41.494139568658646,
        "lon": 172.99219841870448,
        "alt_km": 710.9108812192608,
        "timestamp": "2025-12-17T17:50:19.646817+00:00",
        "meta_object_name": "COSMOS 2251 DEB",
        "meta_object_id": "1993-036ALK",
        "meta_epoch": "2025-12-14T06:55:15.434976",
        "meta_mean_motion": 14.44324437,
        "meta_eccentricity": 0.00641475,
        "meta_inclination": 73.9983,
        "meta_ra_of_asc_node": 194.1379,
        "meta_arg_of_pericenter": 354.0798,
        "meta_mean_anomaly": 5.9592,
        "meta_ephemeris_type": 0,
        "meta_classification_type": "U",
        "meta_norad_cat_id": 35465,
        "meta_element_set_no": 999,
        "meta_rev_at_epoch": 87264,
        "meta_bstar": 0.00045193866,
        "meta_mean_motion_dot": 1.567e-05,
        "meta_mean_motion_ddot": 0,
        "tle_line1": "1 35465U 93036ALK 25348.28837309  .00001567  00000+0  45194-3 0  9990",
        "tle_line2": "2 35465  73.9983 194.1379 0064147 354.0798   5.9592 14.44324437872649"
      },
      "geometry": {
        "type": "Point",
        "coordinates": [
          172.99219841870448,
          -41.494139568658646
        ]
      }
    },
    {
      "type": "Feature",
      "properties": {
        "norad_id": 35469,
        "name": "COSMOS 2251 DEB",
        "group": "cosmos-2251-debris",
        "lat": -66.73118202454727,
        "lon": -123.73695561428327,
        "alt_km": 727.227807813757,
        "timestamp": "2025-12-17T17:50:19.646827+00:00",
        "meta_object_name": "COSMOS 2251 DEB",
        "meta_object_id": "1993-036ALP",
        "meta_epoch": "2025-12-17T08:24:02.847744",
        "meta_mean_motion": 14.4982373,
        "meta_eccentricity": 0.00767391,
        "meta_inclination": 74.0169,
        "meta_ra_of_asc_node": 15.2038,
        "meta_arg_of_pericenter": 169.4288,
        "meta_mean_anomaly": 190.8509,
        "meta_ephemeris_type": 0,
        "meta_classification_type": "U",
        "meta_norad_cat_id": 35469,
        "meta_element_set_no": 999,
        "meta_rev_at_epoch": 88178,
        "meta_bstar": 8.5040604e-05,
        "meta_mean_motion_dot": 3.11e-06,
        "meta_mean_motion_ddot": 0,
        "tle_line1": "1 35469U 93036ALP 25351.35003296  .00000311  00000+0  85041-4 0  9998",
        "tle_line2": "2 35469  74.0169  15.2038 0076739 169.4288 190.8509 14.49823730881780"
      },
      "geometry": {
        "type": "Point",
        "coordinates": [
          -123.73695561428327,
          -66.73118202454727
        ]
      }
    },
    {
      "type": "Feature",
      "properties": {
        "norad_id": 35475,
        "name": "COSMOS 2251 DEB",
        "group": "cosmos-2251-debris",
        "lat": 68.65867081878021,
        "lon": -71.25167382094904,
        "alt_km": 662.6473696515413,
        "timestamp": "2025-12-17T17:50:19.646837+00:00",
        "meta_object_name": "COSMOS 2251 DEB",
        "meta_object_id": "1993-036ALV",
        "meta_epoch": "2025-12-17T04:17:46.417344",
        "meta_mean_motion": 14.69825096,
        "meta_eccentricity": 0.00204153,
        "meta_inclination": 74.0209,
        "meta_ra_of_asc_node": 157.0129,
        "meta_arg_of_pericenter": 229.8269,
        "meta_mean_anomaly": 130.1115,
        "meta_ephemeris_type": 0,
        "meta_classification_type": "U",
        "meta_norad_cat_id": 35475,
        "meta_element_set_no": 999,
        "meta_rev_at_epoch": 65682,
        "meta_bstar": 0.0014653547,
        "meta_mean_motion_dot": 8.76e-05,
        "meta_mean_motion_ddot": 0,
        "tle_line1": "1 35475U 93036ALV 25351.17900946  .00008760  00000+0  14654-2 0  9999",
        "tle_line2": "2 35475  74.0209 157.0129 0020415 229.8269 130.1115 14.69825096656822"
      },
      "geometry": {
        "type": "Point",
        "coordinates": [
          -71.25167382094904,
          68.65867081878021
        ]
      }
    },
    {
      "type": "Feature",
      "properties": {
        "norad_id": 35476,
        "name": "COSMOS 2251 DEB",
        "group": "cosmos-2251-debris",
        "lat": 54.303326614829246,
        "lon": 74.66523999289639,
        "alt_km": 625.9796864559776,
        "timestamp": "2025-12-17T17:50:19.646848+00:00",
        "meta_object_name": "COSMOS 2251 DEB",
        "meta_object_id": "1993-036ALW",
        "meta_epoch": "2025-12-17T04:50:44.401920",
        "meta_mean_motion": 14.75771662,
        "meta_eccentricity": 0.00179105,
        "meta_inclination": 73.9788,
        "meta_ra_of_asc_node": 52.1544,
        "meta_arg_of_pericenter": 31.9252,
        "meta_mean_anomaly": 30.6621,
        "meta_ephemeris_type": 0,
        "meta_classification_type": "U",
        "meta_norad_cat_id": 35476,
        "meta_element_set_no": 999,
        "meta_rev_at_epoch": 87953,
        "meta_bstar": 0.0011974578,
        "meta_mean_motion_dot": 8.2e-05,
        "meta_mean_motion_ddot": 0,
        "tle_line1": "1 35476U 93036ALW 25351.20190280  .00008200  00000+0  11975-2 0  9998",
        "tle_line2": "2 35476  73.9788  52.1544 0017910  31.9252  30.6621 14.75771662879536"
      },
      "geometry": {
        "type": "Point",
        "coordinates": [
          74.66523999289639,
          54.303326614829246
        ]
      }
    },
    {
      "type": "Feature",
      "properties": {
        "norad_id": 35580,
        "name": "COSMOS 2251 DEB",
        "group": "cosmos-2251-debris",
        "lat": -50.51219018662706,
        "lon": 149.69846072456232,
        "alt_km": 1091.6970786226975,
        "timestamp": "2025-12-17T17:50:19.646858+00:00",
        "meta_object_name": "COSMOS 2251 DEB",
        "meta_object_id": "1993-036ALX",
        "meta_epoch": "2025-12-15T21:00:04.999104",
        "meta_mean_motion": 13.83885531,
        "meta_eccentricity": 0.02811057,
        "meta_inclination": 73.9013,
        "meta_ra_of_asc_node": 173.3912,
        "meta_arg_of_pericenter": 177.9882,
        "meta_mean_anomaly": 182.2449,
        "meta_ephemeris_type": 0,
        "meta_classification_type": "U",
        "meta_norad_cat_id": 35580,
        "meta_element_set_no": 999,
        "meta_rev_at_epoch": 62300,
        "meta_bstar": 0.001547595,
        "meta_mean_motion_dot": 2.307e-05,
        "meta_mean_motion_ddot": 0,
        "tle_line1": "1 35580U 93036ALX 25349.87505786  .00002307  00000+0  15476-2 0  9997",
        "tle_line2": "2 35580  73.9013 173.3912 0281105 177.9882 182.2449 13.83885531623007"
      },
      "geometry": {
        "type": "Point",
        "coordinates": [
          149.69846072456232,
          -50.51219018662706
        ]
      }
    }
  ]
}